{"type": "FeatureCollection", "features": [{"type": "Feature", "geometry": {"type": "Point", "coordinates": [77.1, 28.55]}, "properties": {"hotspot_id": "HS_delhi_ncr_2026-07-17_001", "region_id": "delhi_ncr", "date": "2026-07-17", "avg_estimated_aqi": 207.9, "max_estimated_aqi": 209.1, "severity": "Poor", "affected_cell_count": 2, "mode": "live"}}, {"type": "Feature", "geometry": {"type": "Point", "coordinates": [77.2, 28.675]}, "properties": {"hotspot_id": "HS_delhi_ncr_2026-07-17_002", "region_id": "delhi_ncr", "date": "2026-07-17", "avg_estimated_aqi": 218.4, "max_estimated_aqi": 223.3, "severity": "Poor", "affected_cell_count": 2, "mode": "live"}}, {"type": "Feature", "geometry": {"type": "Point", "coordinates": [77.325, 28.625]}, "properties": {"hotspot_id": "HS_delhi_ncr_2026-07-18_003", "region_id": "delhi_ncr", "date": "2026-07-18", "avg_estimated_aqi": 201.2, "max_estimated_aqi": 201.2, "severity": "Poor", "affected_cell_count": 1, "mode": "live"}}, {"type": "Feature", "geometry": {"type": "Point", "coordinates": [76.875, 28.875]}, "properties": {"hotspot_id": "HS_delhi_ncr_2026-07-18_004", "region_id": "delhi_ncr", "date": "2026-07-18", "avg_estimated_aqi": 231.8, "max_estimated_aqi": 231.8, "severity": "Poor", "affected_cell_count": 3, "mode": "live"}}, {"type": "Feature", "geometry": {"type": "Point", "coordinates": [77.5375, 28.8]}, "properties": {"hotspot_id": "HS_delhi_ncr_2026-07-26_005", "region_id": "delhi_ncr", "date": "2026-07-26", "avg_estimated_aqi": 209.2, "max_estimated_aqi": 209.2, "severity": "Poor", "affected_cell_count": 2, "mode": "live"}}, {"type": "Feature", "geometry": {"type": "Point", "coordinates": [77.175, 28.85]}, "properties": {"hotspot_id": "HS_delhi_ncr_2026-07-27_006", "region_id": "delhi_ncr", "date": "2026-07-27", "avg_estimated_aqi": 210.6, "max_estimated_aqi": 210.7, "severity": "Poor", "affected_cell_count": 2, "mode": "live"}}, {"type": "Feature", "geometry": {"type": "Point", "coordinates": [80.175, 26.325]}, "properties": {"hotspot_id": "HS_kanpur_industrial_2026-08-11_007", "region_id": "kanpur_industrial", "date": "2026-08-11", "avg_estimated_aqi": 200.1, "max_estimated_aqi": 200.1, "severity": "Poor", "affected_cell_count": 1, "mode": "live"}}, {"type": "Feature", "geometry": {"type": "Point", "coordinates": [74.975, 31.525]}, "properties": {"hotspot_id": "HS_punjab_stubble_belt_2026-07-30_008", "region_id": "punjab_stubble_belt", "date": "2026-07-30", "avg_estimated_aqi": 215.2, "max_estimated_aqi": 215.2, "severity": "Poor", "affected_cell_count": 1, "mode": "live"}}]}